start=new Date('2022-09-28T00:00:00.000Z').valueOf();
sats=[{"TLE_LINE1":"1 53154U 22083Y   22270.91668981 -.01097095  00000-0 -62296-1 0  9993","TLE_LINE2":"2 53154  53.2158  55.0498 0001318  58.5643 295.3229 15.15280925  1303","PERIAPSIS":"519.219","MEAN_MOTION_DDOT":"0.0000000000000","RA_OF_ASC_NODE":"55.0498","ECCENTRICITY":"0.00013180","NORAD_CAT_ID":"53154","SITE":"AFETR","EPOCH":"2022-09-27T22:00:01.999584","GP_ID":"213669850","COUNTRY_CODE":"US","MEAN_MOTION":"15.15280925","REF_FRAME":"TEME","CENTER_NAME":"EARTH","MEAN_ANOMALY":"295.3229","ELEMENT_SET_NO":"999","BSTAR":"-0.06229600000000","MEAN_MOTION_DOT":"-0.01097095","PERIOD":"95.032","DECAY_DATE":null,"MEAN_ELEMENT_THEORY":"SGP4","OBJECT_NAME":"STARLINK-4077","TIME_SYSTEM":"UTC","OBJECT_TYPE":"PAYLOAD","ARG_OF_PERICENTER":"58.5643","EPHEMERIS_TYPE":"0","OBJECT_ID":"2022-083Y","CLASSIFICATION_TYPE":"U","LAUNCH_DATE":"2022-07-17","FILE":"3585280","INCLINATION":"53.2158","RCS_SIZE":"LARGE","SEMIMAJOR_AXIS":"6898.263","APOAPSIS":"521.037","REV_AT_EPOCH":"130"},{"TLE_LINE2":"2 53155  53.2163  55.0623 0001277  61.9236 359.0371 15.16428125  1303","TLE_LINE1":"1 53155U 22083Z   22270.91668981 -.01067531  00000-0 -58535-1 0  9997","RA_OF_ASC_NODE":"55.0623","ECCENTRICITY":"0.00012770","MEAN_MOTION_DDOT":"0.0000000000000","PERIAPSIS":"515.768","NORAD_CAT_ID":"53155","GP_ID":"213669125","EPOCH":"2022-09-27T22:00:01.999584","SITE":"AFETR","COUNTRY_CODE":"US","MEAN_MOTION":"15.16428125","ELEMENT_SET_NO":"999","MEAN_ANOMALY":"359.0371","CENTER_NAME":"EARTH","REF_FRAME":"TEME","PERIOD":"94.960","BSTAR":"-0.05853500000000","MEAN_MOTION_DOT":"-0.01067531","DECAY_DATE":null,"MEAN_ELEMENT_THEORY":"SGP4","ARG_OF_PERICENTER":"61.9236","OBJECT_TYPE":"PAYLOAD","TIME_SYSTEM":"UTC","OBJECT_NAME":"STARLINK-4088","EPHEMERIS_TYPE":"0","OBJECT_ID":"2022-083Z","CLASSIFICATION_TYPE":"U","LAUNCH_DATE":"2022-07-17","FILE":"3585280","REV_AT_EPOCH":"130","SEMIMAJOR_AXIS":"6894.783","APOAPSIS":"517.529","RCS_SIZE":"LARGE","INCLINATION":"53.2163"},{"PERIOD":"94.965","MEAN_MOTION_DOT":"-0.01053225","BSTAR":"-0.05781900000000","CENTER_NAME":"EARTH","MEAN_ANOMALY":"348.1727","REF_FRAME":"TEME","ELEMENT_SET_NO":"999","MEAN_MOTION":"15.16350511","COUNTRY_CODE":"US","EPOCH":"2022-09-27T22:00:01.999584","GP_ID":"213669038","SITE":"AFETR","NORAD_CAT_ID":"53156","PERIAPSIS":"515.971","MEAN_MOTION_DDOT":"0.0000000000000","RA_OF_ASC_NODE":"55.0618","ECCENTRICITY":"0.00013230","TLE_LINE1":"1 53156U 22083AA  22270.91668981 -.01053225  00000-0 -57819-1 0  9997","TLE_LINE2":"2 53156  53.2163  55.0618 0001323  68.3954 348.1727 15.16350511  1305","RCS_SIZE":"LARGE","INCLINATION":"53.2163","REV_AT_EPOCH":"130","SEMIMAJOR_AXIS":"6895.019","APOAPSIS":"517.796","FILE":"3585280","LAUNCH_DATE":"2022-07-17","CLASSIFICATION_TYPE":"U","EPHEMERIS_TYPE":"0","OBJECT_ID":"2022-083AA","OBJECT_NAME":"STARLINK-4087","ARG_OF_PERICENTER":"68.3954","OBJECT_TYPE":"PAYLOAD","TIME_SYSTEM":"UTC","DECAY_DATE":null,"MEAN_ELEMENT_THEORY":"SGP4"},{"MEAN_ELEMENT_THEORY":"SGP4","DECAY_DATE":null,"OBJECT_NAME":"STARLINK-4093","ARG_OF_PERICENTER":"58.3905","TIME_SYSTEM":"UTC","OBJECT_TYPE":"PAYLOAD","EPHEMERIS_TYPE":"0","OBJECT_ID":"2022-083AB","CLASSIFICATION_TYPE":"U","LAUNCH_DATE":"2022-07-17","FILE":"3585280","RCS_SIZE":"LARGE","INCLINATION":"53.2165","REV_AT_EPOCH":"130","APOAPSIS":"515.930","SEMIMAJOR_AXIS":"6893.050","TLE_LINE1":"1 53157U 22083AB  22270.91668981 -.01030219  00000-0 -56151-1 0  9994","TLE_LINE2":"2 53157  53.2165  55.0657 0001473  58.3905  35.2213 15.17000112  1306","MEAN_MOTION_DDOT":"0.0000000000000","PERIAPSIS":"513.900","ECCENTRICITY":"0.00014730","RA_OF_ASC_NODE":"55.0657","NORAD_CAT_ID":"53157","EPOCH":"2022-09-27T22:00:01.999584","GP_ID":"213668874","SITE":"AFETR","COUNTRY_CODE":"US","MEAN_MOTION":"15.17000112","CENTER_NAME":"EARTH","MEAN_ANOMALY":"35.2213","REF_FRAME":"TEME","ELEMENT_SET_NO":"999","PERIOD":"94.924","MEAN_MOTION_DOT":"-0.01030219","BSTAR":"-0.05615100000000"},{"CLASSIFICATION_TYPE":"U","LAUNCH_DATE":"2022-07-17","FILE":"3585280","INCLINATION":"53.2161","RCS_SIZE":"LARGE","APOAPSIS":"518.361","SEMIMAJOR_AXIS":"6895.636","REV_AT_EPOCH":"130","MEAN_ELEMENT_THEORY":"SGP4","DECAY_DATE":null,"OBJECT_NAME":"STARLINK-4054","TIME_SYSTEM":"UTC","OBJECT_TYPE":"PAYLOAD","ARG_OF_PERICENTER":"73.6537","OBJECT_ID":"2022-083AC","EPHEMERIS_TYPE":"0","COUNTRY_CODE":"US","MEAN_MOTION":"15.16146998","REF_FRAME":"TEME","CENTER_NAME":"EARTH","MEAN_ANOMALY":"330.6300","ELEMENT_SET_NO":"999","BSTAR":"-0.05910100000000","MEAN_MOTION_DOT":"-0.01069075","PERIOD":"94.978","TLE_LINE1":"1 53158U 22083AC  22270.91668981 -.01069075  00000-0 -59101-1 0  9995","TLE_LINE2":"2 53158  53.2161  55.0595 0001248  73.6537 330.6300 15.16146998  1306","PERIAPSIS":"516.640","MEAN_MOTION_DDOT":"0.0000000000000","ECCENTRICITY":"0.00012480","RA_OF_ASC_NODE":"55.0595","NORAD_CAT_ID":"53158","SITE":"AFETR","GP_ID":"213669611","EPOCH":"2022-09-27T22:00:01.999584"},{"NORAD_CAT_ID":"53159","SITE":"AFETR","GP_ID":"213668710","EPOCH":"2022-09-27T22:00:01.999584","TLE_LINE2":"2 53159  53.2168  55.0708 0002006  37.1855  88.4889 15.17639898  1308","TLE_LINE1":"1 53159U 22083AD  22270.91668981 -.01108127  00000-0 -58842-1 0  9999","RA_OF_ASC_NODE":"55.0708","ECCENTRICITY":"0.00020060","PERIAPSIS":"511.595","MEAN_MOTION_DDOT":"0.0000000000000","ELEMENT_SET_NO":"999","REF_FRAME":"TEME","MEAN_ANOMALY":"88.4889","CENTER_NAME":"EARTH","BSTAR":"-0.05884200000000","MEAN_MOTION_DOT":"-0.01108127","PERIOD":"94.884","COUNTRY_CODE":"US","MEAN_MOTION":"15.17639898","OBJECT_TYPE":"PAYLOAD","TIME_SYSTEM":"UTC","ARG_OF_PERICENTER":"37.1855","OBJECT_NAME":"STARLINK-4111","OBJECT_ID":"2022-083AD","EPHEMERIS_TYPE":"0","DECAY_DATE":null,"MEAN_ELEMENT_THEORY":"SGP4","FILE":"3585280","APOAPSIS":"514.360","SEMIMAJOR_AXIS":"6891.113","REV_AT_EPOCH":"130","RCS_SIZE":"LARGE","INCLINATION":"53.2168","CLASSIFICATION_TYPE":"U","LAUNCH_DATE":"2022-07-17"},{"FILE":"3585280","INCLINATION":"53.2165","RCS_SIZE":"LARGE","APOAPSIS":"516.690","SEMIMAJOR_AXIS":"6893.885","REV_AT_EPOCH":"130","CLASSIFICATION_TYPE":"U","LAUNCH_DATE":"2022-07-17","OBJECT_NAME":"STARLINK-4096","OBJECT_TYPE":"PAYLOAD","TIME_SYSTEM":"UTC","ARG_OF_PERICENTER":"62.2134","EPHEMERIS_TYPE":"0","OBJECT_ID":"2022-083AE","MEAN_ELEMENT_THEORY":"SGP4","DECAY_DATE":null,"REF_FRAME":"TEME","MEAN_ANOMALY":"15.1359","CENTER_NAME":"EARTH","ELEMENT_SET_NO":"999","BSTAR":"-0.05816900000000","MEAN_MOTION_DOT":"-0.01069770","PERIOD":"94.941","COUNTRY_CODE":"US","MEAN_MOTION":"15.16724583","NORAD_CAT_ID":"53160","SITE":"AFETR","GP_ID":"213669453","EPOCH":"2022-09-27T22:00:01.999584","TLE_LINE1":"1 53160U 22083AE  22270.91668981 -.01069770  00000-0 -58169-1 0  9993","TLE_LINE2":"2 53160  53.2165  55.0651 0001364  62.2134  15.1359 15.16724583  1303","MEAN_MOTION_DDOT":"0.0000000000000","PERIAPSIS":"514.810","RA_OF_ASC_NODE":"55.0651","ECCENTRICITY":"0.00013640"},{"PERIAPSIS":"509.031","MEAN_MOTION_DDOT":"0.0000000000000","RA_OF_ASC_NODE":"55.0780","ECCENTRICITY":"0.00017160","TLE_LINE1":"1 53161U 22083AF  22270.91668981 -.01144208  00000-0 -59328-1 0  9992","TLE_LINE2":"2 53161  53.2174  55.0780 0001716  56.5701 116.1901 15.18553503  1303","GP_ID":"213669289","EPOCH":"2022-09-27T22:00:01.999584","SITE":"AFETR","NORAD_CAT_ID":"53161","MEAN_MOTION":"15.18553503","COUNTRY_CODE":"US","PERIOD":"94.827","BSTAR":"-0.05932800000000","MEAN_MOTION_DOT":"-0.01144208","MEAN_ANOMALY":"116.1901","CENTER_NAME":"EARTH","REF_FRAME":"TEME","ELEMENT_SET_NO":"999","DECAY_DATE":null,"MEAN_ELEMENT_THEORY":"SGP4","OBJECT_ID":"2022-083AF","EPHEMERIS_TYPE":"0","OBJECT_NAME":"STARLINK-4055","ARG_OF_PERICENTER":"56.5701","OBJECT_TYPE":"PAYLOAD","TIME_SYSTEM":"UTC","LAUNCH_DATE":"2022-07-17","CLASSIFICATION_TYPE":"U","INCLINATION":"53.2174","RCS_SIZE":"LARGE","REV_AT_EPOCH":"130","APOAPSIS":"511.396","SEMIMAJOR_AXIS":"6888.348","FILE":"3585280"},{"EPHEMERIS_TYPE":"0","OBJECT_ID":"2022-083AG","OBJECT_NAME":"STARLINK-4114","ARG_OF_PERICENTER":"74.3747","TIME_SYSTEM":"UTC","OBJECT_TYPE":"PAYLOAD","DECAY_DATE":null,"MEAN_ELEMENT_THEORY":"SGP4","INCLINATION":"53.2166","RCS_SIZE":"LARGE","REV_AT_EPOCH":"130","APOAPSIS":"514.918","SEMIMAJOR_AXIS":"6892.121","FILE":"3585280","LAUNCH_DATE":"2022-07-17","CLASSIFICATION_TYPE":"U","EPOCH":"2022-09-27T22:00:01.999584","GP_ID":"213669851","SITE":"AFETR","NORAD_CAT_ID":"53162","PERIAPSIS":"513.053","MEAN_MOTION_DDOT":"0.0000000000000","RA_OF_ASC_NODE":"55.0682","ECCENTRICITY":"0.00013530","TLE_LINE1":"1 53162U 22083AG  22270.91668981 -.01044330  00000-0 -56488-1 0  9992","TLE_LINE2":"2 53162  53.2166  55.0682 0001353  74.3747  35.3437 15.17306993  1305","PERIOD":"94.905","BSTAR":"-0.05648800000000","MEAN_MOTION_DOT":"-0.01044330","MEAN_ANOMALY":"35.3437","CENTER_NAME":"EARTH","REF_FRAME":"TEME","ELEMENT_SET_NO":"999","MEAN_MOTION":"15.17306993","COUNTRY_CODE":"US"},{"FILE":"3585280","INCLINATION":"53.2174","RCS_SIZE":"LARGE","REV_AT_EPOCH":"130","SEMIMAJOR_AXIS":"6886.898","APOAPSIS":"509.834","CLASSIFICATION_TYPE":"U","LAUNCH_DATE":"2022-07-17","OBJECT_NAME":"STARLINK-4104","ARG_OF_PERICENTER":"55.7565","TIME_SYSTEM":"UTC","OBJECT_TYPE":"PAYLOAD","EPHEMERIS_TYPE":"0","OBJECT_ID":"2022-083AH","DECAY_DATE":null,"MEAN_ELEMENT_THEORY":"SGP4","MEAN_ANOMALY":"143.8271","CENTER_NAME":"EARTH","REF_FRAME":"TEME","ELEMENT_SET_NO":"999","PERIOD":"94.797","MEAN_MOTION_DOT":"-0.01106666","BSTAR":"-0.05643500000000","COUNTRY_CODE":"US","MEAN_MOTION":"15.19033107","NORAD_CAT_ID":"53163","GP_ID":"213669126","EPOCH":"2022-09-27T22:00:01.999584","SITE":"AFETR","TLE_LINE1":"1 53163U 22083AH  22270.91668981 -.01106666  00000-0 -56435-1 0  9996","TLE_LINE2":"2 53163  53.2174  55.0819 0001554  55.7565 143.8271 15.19033107  1308","PERIAPSIS":"507.693","MEAN_MOTION_DDOT":"0.0000000000000","ECCENTRICITY":"0.00015540","RA_OF_ASC_NODE":"55.0819"}];
